SL-16 R/B               
1 25400U 98043G   25359.84899212  .00000075  00000+0  50222-4 0  9998
2 25400  98.8146 307.7417 0009028 224.4454 135.6002 14.26028400428460
SL-16 R/B               
1 25407U 98045B   25360.11451086  .00000281  00000+0  16594-3 0  9994
2 25407  71.0122 336.2991 0006151 154.3249 205.8181 14.16178699416689
ISS (ZARYA)             
1 25544U 98067A   25359.88993231  .00013933  00000+0  25321-3 0  9991
2 25544  51.6319  77.3524 0003235 301.5230  58.5443 15.49823805544896
CZ-4B R/B               
1 25732U 99025C   25360.15540516  .00000061  00000+0  50181-4 0  9992
2 25732  98.6751  41.1342 0036896 194.8547 235.6262 14.18246837377740
OKEAN-O                 
1 25860U 99039A   25360.10692634  .00000691  00000+0  97855-4 0  9991
2 25860  97.9584  55.6919 0001145 114.6371 245.4960 14.80183246423505
SL-16 R/B               
1 25861U 99039B   25360.15672494  .00000599  00000+0  82964-4 0  9991
2 25861  98.0108  54.3077 0015837 132.7988 227.4559 14.81605021425977
DELTA 2 R/B             
1 25876U 99041E   25360.02561094  .00001194  00000+0  23172-3 0  9996
2 25876  51.7601 235.4091 0504393 130.9209 233.6546 14.11435755352625
HELIOS 1B               
1 25977U 99064A   25359.72057164  .00002366  00000+0  26851-3 0  9995
2 25977  98.1748 254.7715 0000958  32.0133 328.1140 14.87332823674269
TERRA                   
1 25994U 99068A   25360.15840895  .00000452  00000+0  10137-3 0  9992
2 25994  97.9730  51.3492 0003393  67.7097 353.1976 14.60916328384340
SL-16 R/B               
1 26070U 00006B   25360.11079735  .00000183  00000+0  11705-3 0  9998
2 26070  71.0011 252.5440 0018598 290.5483  69.3644 14.15809253338140
TITAN 4B R/B            
1 26474U 00047B   25360.13367178  .00003596  00000+0  23235-3 0  9996
2 26474  67.9887 247.2367 0038006 128.0787 232.3800 15.08875274381817
ENVISAT                 
1 27386U 02009A   25352.94754304  .00000081  00000+0  39999-4 0  9991
2 27386  98.3609 303.5309 0001126  84.8976 298.2993 14.39001403247569
